SKYSAT-A                
1 39418U 13066C   25066.88937862  .00004989  00000+0  31744-3 0  9992
2 39418  97.4486 125.4024 0024794 120.7844 239.5831 15.08981623618060
SKYSAT-B                
1 40072U 14037D   25066.69797825  .00002489  00000+0  29135-3 0  9995
2 40072  98.3369 356.4457 0005920   5.5583 354.5695 14.86029774576631
SKYSAT-C1               
1 41601U 16040C   25066.73230456  .00012452  00000+0  42866-3 0  9994
2 41601  97.0213 119.6673 0003408 126.3542 233.8014 15.30169938486450
SKYSAT-C4               
1 41771U 16058B   25066.67873999  .00012879  00000+0  38673-3 0  9993
2 41771  96.9713 106.5911 0002302  81.3562 278.7943 15.34548597473636
SKYSAT-C5               
1 41772U 16058C   25066.71365003  .00016246  00000+0  45178-3 0  9991
2 41772  97.1159 120.4691 0005699  47.5197 312.6529 15.36903173472177
SKYSAT-C2               
1 41773U 16058D   25066.64868822  .00012988  00000+0  43275-3 0  9996
2 41773  96.9757 104.0828 0002182 109.3417 250.8061 15.31219760473436
SKYSAT-C3               
1 41774U 16058E   25066.71253055  .00014084  00000+0  40509-3 0  9997
2 41774  96.9692 114.7977 0003520  12.2216 347.9114 15.35883558474180
SKYSAT-C11              
1 42987U 17068A   25066.91348254  .00020260  00000+0  56187-3 0  9996
2 42987  97.3779 200.8085 0007096 111.6155 248.5846 15.36938644411214
SKYSAT-C10              
1 42988U 17068B   25066.84223703  .00017543  00000+0  55718-3 0  9999
2 42988  97.3888 197.7801 0006560  18.3281 341.8196 15.32691345410959
SKYSAT-C9               
1 42989U 17068C   25066.82310371  .00019139  00000+0  57344-3 0  9996
2 42989  97.3814 196.1720 0006647  45.3872 314.7912 15.34526584411156
SKYSAT-C8               
1 42990U 17068D   25066.84293076  .00016111  00000+0  55700-3 0  9993
2 42990  97.3911 196.7695 0001464 171.7908 188.3356 15.29989036410862
SKYSAT-C7               
1 42991U 17068E   25066.81180241  .00016630  00000+0  55178-3 0  9995
2 42991  97.3916 197.7406 0003091  86.2146 273.9449 15.31312904410929
SKYSAT-C6               
1 42992U 17068F   25066.92304402  .00015724  00000+0  53353-3 0  9991
2 42992  97.3949 198.7691 0005882  44.1023 316.0686 15.30587737410963
SKYSAT-C12              
1 43797U 18099AR  25066.60527995  .00007201  00000+0  22020-3 0  9997
2 43797  96.9818 107.2979 0007397  65.4937 294.7078 15.34108249350000
SKYSAT-C13              
1 43802U 18099AW  25066.68605697  .00026008  00000+0  54773-3 0  9994
2 43802  97.0049 117.0983 0009247 157.1696 202.9967 15.45202406350040
FLOCK 4Y-24             
1 55020U 23001M   25066.75111607  .00041171  00000+0  75985-3 0  9995
2 55020  97.3816 136.7683 0005359 295.5117  64.5580 15.48981595121270
FLOCK 4Y-32             
1 55021U 23001N   25066.69692197  .00054992  00000+0  91115-3 0  9995
2 55021  97.3760 137.1322 0006159 295.6059  64.4557 15.51969349121303
FLOCK 4Y-22             
1 55022U 23001P   25067.14584749  .00034075  00000+0  64956-3 0  9993
2 55022  97.3788 137.0726 0005893 292.9506  67.1122 15.48087039121336
FLOCK 4Y-18             
1 55023U 23001Q   25066.70651857  .00036084  00000+0  68471-3 0  9998
2 55023  97.3846 137.1397 0005064 295.3888  64.6838 15.48212238121277
FLOCK 4Y-14             
1 55024U 23001R   25067.12411472  .00040744  00000+0  75553-3 0  9990
2 55024  97.3791 137.2775 0005843 301.7227  58.3454 15.48844863121338
FLOCK 4Y-30             
1 55025U 23001S   25066.18457165  .00046959  00000+0  80594-3 0  9990
2 55025  97.3862 136.9952 0006025 297.7462  62.3178 15.51016280121212
FLOCK 4Y-25             
1 55027U 23001U   25066.71376900  .00035130  00000+0  66498-3 0  9994
2 55027  97.3761 136.5195 0005443 293.5538  66.5141 15.48286337121278
FLOCK 4Y-5              
1 55028U 23001V   25066.70467749  .00038331  00000+0  71320-3 0  9992
2 55028  97.3834 136.9308 0005891 293.5978  66.4654 15.48760097121273
FLOCK 4Y-10             
1 55029U 23001W   25066.89688224  .00039289  00000+0  73041-3 0  9991
2 55029  97.3800 137.2018 0006034 293.4267  66.6349 15.48778082121309
FLOCK 4Y-29             
1 55030U 23001X   25066.75259857  .00076674  00000+0  10055-2 0  9998
2 55030  97.3791 138.8000 0005760 301.1821  58.8870 15.58287556121412
FLOCK 4Y-17             
1 55031U 23001Y   25066.72352213  .00039771  00000+0  74383-3 0  9998
2 55031  97.3812 137.0723 0005363 297.4428  62.6277 15.48607039121278
FLOCK 4Y-7              
1 55032U 23001Z   25066.70443997  .00033426  00000+0  70138-3 0  9992
2 55032  97.3811 135.8976 0006520 296.4596  63.5983 15.45289156121216
FLOCK 4Y-16             
1 55040U 23001AH  25066.93022366  .00061808  00000+0  99469-3 0  9992
2 55040  97.3842 138.0303 0005714 317.9527  42.1287 15.52757398121345
FLOCK 4Y-33             
1 55042U 23001AK  25067.17094816  .00038047  00000+0  72224-3 0  9999
2 55042  97.3836 137.2011 0004948 294.1501  65.9232 15.48191167121347
FLOCK 4Y-11             
1 55043U 23001AL  25066.75313286  .00038468  00000+0  79745-3 0  9990
2 55043  97.3866 135.6224 0006932 309.9122  50.1517 15.45613761121177
FLOCK 4Y-35             
1 55057U 23001BA  25067.17673702  .00059485  00000+0  93874-3 0  9995
2 55057  97.3822 138.0812 0007278 310.9577  49.1045 15.53300699121383
FLOCK 4Y-20             
1 55063U 23001BG  25067.16158054  .00039289  00000+0  74832-3 0  9992
2 55063  97.3859 137.5740 0006886 303.1098  56.9491 15.48075224121333
FLOCK 4Y-12             
1 55065U 23001BJ  25066.89849755  .00037262  00000+0  70228-3 0  9992
2 55065  97.3829 137.4485 0006529 300.4137  59.6468 15.48392629121307
FLOCK 4Y-6              
1 55066U 23001BK  25066.91191310  .00059457  00000+0  97211-3 0  9994
2 55066  97.3878 137.9917 0007909 305.2856  54.7657 15.52309032121331
FLOCK 4Y-15             
1 55068U 23001BM  25066.75941721  .00039425  00000+0  72542-3 0  9990
2 55068  97.3741 136.7290 0007502 294.7666  65.2804 15.49062447121291
FLOCK 4Y-9              
1 55069U 23001BN  25066.69964606  .00208665  00000+0  34603-2 0  9990
2 55069  97.3835 137.0910 0007544 302.5375  57.5148 15.51358011121271
FLOCK 4Y-26             
1 55070U 23001BP  25067.14613571  .00046515  00000+0  81717-3 0  9998
2 55070  97.3875 137.8029 0008353 290.9164  69.1193 15.50338756121363
FLOCK 4Y-8              
1 55071U 23001BQ  25066.75509696  .00084341  00000+0  11033-2 0  9999
2 55071  97.3807 138.9234 0007711 298.9164  61.1317 15.58310004121414
FLOCK 4Y-2              
1 55074U 23001BT  25066.73835895  .00041223  00000+0  78200-3 0  9995
2 55074  97.3807 137.1396 0007511 304.0888  55.9649 15.48176356121280
FLOCK 4Y-21             
1 55077U 23001BW  25066.72600219  .00040015  00000+0  74311-3 0  9994
2 55077  97.3815 137.2440 0007301 301.8689  58.1850 15.48795987121280
FLOCK 4Y-36             
1 55078U 23001BX  25066.74088815  .00061698  00000+0  98247-3 0  9993
2 55078  97.3784 137.7507 0007782 302.5795  57.4706 15.53036947121332
FLOCK 4Y-13             
1 55079U 23001BY  25066.75033247  .00044607  00000+0  79827-3 0  9998
2 55079  97.3797 137.2197 0007043 303.1508  56.9067 15.49833701121293
FLOCK 4Y-23             
1 55080U 23001BZ  25066.69492741  .00061384  00000+0  99341-3 0  9995
2 55080  97.3852 137.5390 0009407 295.2643  64.7634 15.52571571121310
FLOCK 4Y-34             
1 55082U 23001CB  25066.74149844  .00047673  00000+0  83950-3 0  9990
2 55082  97.3786 137.0686 0007963 300.6801  59.3665 15.50269796121295
FLOCK 4Y-27             
1 55083U 23001CC  25066.76004548  .00066717  00000+0  10042-2 0  9995
2 55083  97.3847 138.4725 0007823 296.4898  63.5553 15.54574166121372
FLOCK 4Q-1              
1 58270U 23174Q   25066.72703145  .00016272  00000+0  55750-3 0  9999
2 58270  97.4262 145.8255 0008686  40.1887 319.9995 15.30248162 73861
FLOCK 4Q-16             
1 58271U 23174R   25067.14101199  .00015278  00000+0  53450-3 0  9998
2 58271  97.4226 145.8191 0008986  40.2620 319.9284 15.29578207 73911
FLOCK 4Q-11             
1 58273U 23174T   25066.68097720  .00017150  00000+0  59971-3 0  9997
2 58273  97.4260 145.5357 0008839  42.2520 317.9399 15.29569526 73841
FLOCK 4Q-36             
1 58274U 23174U   25066.74975438  .00019375  00000+0  63625-3 0  9998
2 58274  97.4254 146.2334 0007759  34.0919 326.0819 15.31590705 73898
FLOCK 4Q-12             
1 58275U 23174V   25066.72002495  .00018841  00000+0  61031-3 0  9997
2 58275  97.4223 146.1578 0007606  36.6306 323.5454 15.32037195 73902
FLOCK 4Q-19             
1 58278U 23174Y   25067.18508737  .00131967  00000+0  29324-2 0  9994
2 58278  97.4183 146.8517 0003968 329.6742  30.4275 15.43170359 73981
FLOCK 4Q-28             
1 58280U 23174AA  25066.75932210  .00018295  00000+0  61317-3 0  9993
2 58280  97.4262 146.0969 0008155  35.7766 324.4020 15.30939102 73887
FLOCK 4Q-27             
1 58282U 23174AC  25066.76406994  .00013885  00000+0  46055-3 0  9993
2 58282  97.4206 145.8939 0007809  32.7609 327.4115 15.31339513 73899
FLOCK 4Q-17             
1 58283U 23174AD  25067.17760590  .00024276  00000+0  74404-3 0  9990
2 58283  97.4202 146.6685 0007441  21.6660 338.4896 15.33754560 73982
FLOCK 4Q-26             
1 58284U 23174AE  25066.64996390  .00018127  00000+0  59055-3 0  9994
2 58284  97.4253 146.2518 0008283  34.2441 325.9333 15.31856761 73882
FLOCK 4Q-31             
1 58285U 23174AF  25067.18774536  .00017605  00000+0  59400-3 0  9995
2 58285  97.4293 146.7425 0009265  32.8499 327.3316 15.30723035 73958
FLOCK 4Q-30             
1 58286U 23174AG  25066.76098900  .00017231  00000+0  57390-3 0  9994
2 58286  97.4294 146.3945 0009071  34.4626 325.7202 15.31148444 73893
PELICAN-1               
1 58296U 23174AS  25067.17512722  .00014293  00000+0  39356-3 0  9991
2 58296  97.4253 148.7808 0008272 244.6542 115.3846 15.37231134 74092
FLOCK 4Q-25             
1 58303U 23174AZ  25066.76669110  .00023940  00000+0  75745-3 0  9999
2 58303  97.4197 145.9605 0008117  16.0631 344.0866 15.32737727 73906
FLOCK 4Q-29             
1 58304U 23174BA  25066.69654450  .00018154  00000+0  60824-3 0  9996
2 58304  97.4286 146.1712 0008929  22.2921 337.8707 15.30945624 73875
